start=new Date('2022-12-29T00:00:00.000Z').valueOf();
sats=[{"MEAN_MOTION_DOT":"-0.00002106","TLE_LINE2":"2 52475  53.2142 257.9979 0002263  48.3006 311.8180 15.08838178 36239","TIME_SYSTEM":"UTC","ARG_OF_PERICENTER":"48.3006","CLASSIFICATION_TYPE":"U","BSTAR":"-0.00011424000000","RA_OF_ASC_NODE":"257.9979","CENTER_NAME":"EARTH","EPHEMERIS_TYPE":"0","COUNTRY_CODE":"US","SITE":"AFETR","APOAPSIS":"541.316","MEAN_ANOMALY":"311.8180","EPOCH":"2022-12-28T16:31:55.838208","PERIAPSIS":"538.185","TLE_LINE1":"1 52475U 22049AA  22362.68884072 -.00002106  00000-0 -11424-3 0  9994","GP_ID":"221667812","PERIOD":"95.438","NORAD_CAT_ID":"52475","RCS_SIZE":"LARGE","OBJECT_TYPE":"PAYLOAD","OBJECT_NAME":"STARLINK-3882","REV_AT_EPOCH":"3623","DECAY_DATE":null,"MEAN_ELEMENT_THEORY":"SGP4","MEAN_MOTION":"15.08838178","INCLINATION":"53.2142","MEAN_MOTION_DDOT":"0.0000000000000","ELEMENT_SET_NO":"999","OBJECT_ID":"2022-049AA","REF_FRAME":"TEME","FILE":"3724831","SEMIMAJOR_AXIS":"6917.886","LAUNCH_DATE":"2022-05-06","ECCENTRICITY":"0.00022630"},{"EPOCH":"2022-12-28T02:34:36.108768","PERIAPSIS":"538.053","TLE_LINE1":"1 52476U 22049AB  22362.10736237  .00002416  00000-0  16981-3 0  9996","GP_ID":"221664128","CENTER_NAME":"EARTH","EPHEMERIS_TYPE":"0","SITE":"AFETR","COUNTRY_CODE":"US","APOAPSIS":"541.404","MEAN_ANOMALY":"325.3917","ARG_OF_PERICENTER":"34.7233","CLASSIFICATION_TYPE":"U","BSTAR":"0.00016981000000","RA_OF_ASC_NODE":"250.5963","MEAN_MOTION_DOT":"0.00002416","TLE_LINE2":"2 52476  53.2183 250.5963 0002422  34.7233 325.3917 15.08845417 37362","TIME_SYSTEM":"UTC","ELEMENT_SET_NO":"999","OBJECT_ID":"2022-049AB","REF_FRAME":"TEME","FILE":"3724805","SEMIMAJOR_AXIS":"6917.864","LAUNCH_DATE":"2022-05-06","ECCENTRICITY":"0.00024220","REV_AT_EPOCH":"3736","MEAN_ELEMENT_THEORY":"SGP4","DECAY_DATE":null,"MEAN_MOTION":"15.08845417","INCLINATION":"53.2183","MEAN_MOTION_DDOT":"0.0000000000000","RCS_SIZE":"LARGE","OBJECT_TYPE":"PAYLOAD","OBJECT_NAME":"STARLINK-3835","PERIOD":"95.437","NORAD_CAT_ID":"52476"},{"OBJECT_TYPE":"PAYLOAD","OBJECT_NAME":"STARLINK-3860","RCS_SIZE":"LARGE","NORAD_CAT_ID":"52477","PERIOD":"95.436","REF_FRAME":"TEME","FILE":"3725038","LAUNCH_DATE":"2022-05-06","SEMIMAJOR_AXIS":"6917.803","ECCENTRICITY":"0.00030820","ELEMENT_SET_NO":"999","OBJECT_ID":"2022-049AC","INCLINATION":"53.2179","MEAN_MOTION_DDOT":"0.0000000000000","REV_AT_EPOCH":"3734","MEAN_ELEMENT_THEORY":"SGP4","DECAY_DATE":null,"MEAN_MOTION":"15.08865268","RA_OF_ASC_NODE":"251.1611","ARG_OF_PERICENTER":"27.3355","CLASSIFICATION_TYPE":"U","BSTAR":"0.00047677000000","TLE_LINE2":"2 52477  53.2179 251.1611 0003082  27.3355 332.7799 15.08865268 37345","TIME_SYSTEM":"UTC","MEAN_MOTION_DOT":"0.00007313","GP_ID":"221696544","PERIAPSIS":"537.536","EPOCH":"2022-12-27T23:34:25.650048","TLE_LINE1":"1 52477U 22049AC  22361.98224132  .00007313  00000-0  47677-3 0  9995","APOAPSIS":"541.800","MEAN_ANOMALY":"332.7799","CENTER_NAME":"EARTH","EPHEMERIS_TYPE":"0","SITE":"AFETR","COUNTRY_CODE":"US"},{"TIME_SYSTEM":"UTC","TLE_LINE2":"2 52478  53.2135 258.0391 0001785  60.3781 299.7388 15.08844811 37311","MEAN_MOTION_DOT":"0.00000002","RA_OF_ASC_NODE":"258.0391","CLASSIFICATION_TYPE":"U","BSTAR":"0.00001819900000","ARG_OF_PERICENTER":"60.3781","MEAN_ANOMALY":"299.7388","APOAPSIS":"540.966","SITE":"AFETR","COUNTRY_CODE":"US","EPHEMERIS_TYPE":"0","CENTER_NAME":"EARTH","GP_ID":"221695803","TLE_LINE1":"1 52478U 22049AD  22362.68052259  .00000002  00000-0  18199-4 0  9999","PERIAPSIS":"538.496","EPOCH":"2022-12-28T16:19:57.151776","NORAD_CAT_ID":"52478","PERIOD":"95.437","OBJECT_NAME":"STARLINK-3825","OBJECT_TYPE":"PAYLOAD","RCS_SIZE":"LARGE","INCLINATION":"53.2135","MEAN_MOTION_DDOT":"0.0000000000000","MEAN_MOTION":"15.08844811","DECAY_DATE":null,"MEAN_ELEMENT_THEORY":"SGP4","REV_AT_EPOCH":"3731","ECCENTRICITY":"0.00017850","LAUNCH_DATE":"2022-05-06","SEMIMAJOR_AXIS":"6917.866","FILE":"3725038","REF_FRAME":"TEME","OBJECT_ID":"2022-049AD","ELEMENT_SET_NO":"999"},{"SEMIMAJOR_AXIS":"6917.906","LAUNCH_DATE":"2022-05-06","ECCENTRICITY":"0.00027300","REF_FRAME":"TEME","FILE":"3725038","OBJECT_ID":"2022-049AE","ELEMENT_SET_NO":"999","INCLINATION":"53.2179","MEAN_MOTION_DDOT":"0.0000000000000","MEAN_MOTION":"15.08831613","REV_AT_EPOCH":"3747","DECAY_DATE":null,"MEAN_ELEMENT_THEORY":"SGP4","OBJECT_NAME":"STARLINK-3878","OBJECT_TYPE":"PAYLOAD","RCS_SIZE":"LARGE","NORAD_CAT_ID":"52479","PERIOD":"95.438","GP_ID":"221695552","TLE_LINE1":"1 52479U 22049AE  22362.82865461 -.00000592  00000-0 -19071-4 0  9999","PERIAPSIS":"537.882","EPOCH":"2022-12-28T19:53:15.758304","APOAPSIS":"541.660","MEAN_ANOMALY":"325.9317","EPHEMERIS_TYPE":"0","COUNTRY_CODE":"US","SITE":"AFETR","CENTER_NAME":"EARTH","RA_OF_ASC_NODE":"247.3599","CLASSIFICATION_TYPE":"U","BSTAR":"-0.00001907100000","ARG_OF_PERICENTER":"34.1850","TLE_LINE2":"2 52479  53.2179 247.3599 0002730  34.1850 325.9317 15.08831613 37475","TIME_SYSTEM":"UTC","MEAN_MOTION_DOT":"-0.00000592"},{"APOAPSIS":"541.339","MEAN_ANOMALY":"323.3796","CENTER_NAME":"EARTH","EPHEMERIS_TYPE":"0","SITE":"AFETR","COUNTRY_CODE":"US","GP_ID":"221696802","EPOCH":"2022-12-28T00:20:46.920480","PERIAPSIS":"538.071","TLE_LINE1":"1 52480U 22049AF  22362.01443195  .00003214  00000-0  21989-3 0  9990","TLE_LINE2":"2 52480  53.2183 261.0234 0002362  36.7358 323.3796 15.08853365 35977","TIME_SYSTEM":"UTC","MEAN_MOTION_DOT":"0.00003214","RA_OF_ASC_NODE":"261.0234","ARG_OF_PERICENTER":"36.7358","CLASSIFICATION_TYPE":"U","BSTAR":"0.00021989000000","INCLINATION":"53.2183","MEAN_MOTION_DDOT":"0.0000000000000","REV_AT_EPOCH":"3597","MEAN_ELEMENT_THEORY":"SGP4","DECAY_DATE":null,"MEAN_MOTION":"15.08853365","REF_FRAME":"TEME","FILE":"3725038","LAUNCH_DATE":"2022-05-06","SEMIMAJOR_AXIS":"6917.840","ECCENTRICITY":"0.00023620","ELEMENT_SET_NO":"999","OBJECT_ID":"2022-049AF","NORAD_CAT_ID":"52480","PERIOD":"95.437","OBJECT_TYPE":"PAYLOAD","OBJECT_NAME":"STARLINK-3839","RCS_SIZE":"LARGE"},{"MEAN_MOTION_DDOT":"0.0000000000000","INCLINATION":"53.2167","MEAN_MOTION":"15.08839300","REV_AT_EPOCH":"3733","DECAY_DATE":null,"MEAN_ELEMENT_THEORY":"SGP4","SEMIMAJOR_AXIS":"6917.883","LAUNCH_DATE":"2022-05-06","ECCENTRICITY":"0.00021520","REF_FRAME":"TEME","FILE":"3725038","OBJECT_ID":"2022-049AG","ELEMENT_SET_NO":"999","NORAD_CAT_ID":"52481","PERIOD":"95.438","OBJECT_NAME":"STARLINK-3842","OBJECT_TYPE":"PAYLOAD","RCS_SIZE":"LARGE","APOAPSIS":"541.236","MEAN_ANOMALY":"323.7005","EPHEMERIS_TYPE":"0","SITE":"AFETR","COUNTRY_CODE":"US","CENTER_NAME":"EARTH","GP_ID":"221697044","TLE_LINE1":"1 52481U 22049AG  22362.81668501 -.00002464  00000-0 -13673-3 0  9998","EPOCH":"2022-12-28T19:36:01.584864","PERIAPSIS":"538.259","TLE_LINE2":"2 52481  53.2167 257.4306 0002152  36.4133 323.7005 15.08839300 37336","TIME_SYSTEM":"UTC","MEAN_MOTION_DOT":"-0.00002464","RA_OF_ASC_NODE":"257.4306","BSTAR":"-0.00013673000000","CLASSIFICATION_TYPE":"U","ARG_OF_PERICENTER":"36.4133"},{"OBJECT_TYPE":"PAYLOAD","OBJECT_NAME":"STARLINK-3813","RCS_SIZE":"LARGE","NORAD_CAT_ID":"52482","PERIOD":"95.438","FILE":"3725038","REF_FRAME":"TEME","ECCENTRICITY":"0.00031910","SEMIMAJOR_AXIS":"6917.878","LAUNCH_DATE":"2022-05-06","ELEMENT_SET_NO":"999","OBJECT_ID":"2022-049AH","MEAN_MOTION_DDOT":"0.0000000000000","INCLINATION":"53.2165","MEAN_ELEMENT_THEORY":"SGP4","DECAY_DATE":null,"REV_AT_EPOCH":"3623","MEAN_MOTION":"15.08840768","RA_OF_ASC_NODE":"247.3896","ARG_OF_PERICENTER":"32.5620","CLASSIFICATION_TYPE":"U","BSTAR":"0.00008556800000","TIME_SYSTEM":"UTC","TLE_LINE2":"2 52482  53.2165 247.3896 0003191  32.5620 327.5568 15.08840768 36233","MEAN_MOTION_DOT":"0.00001073","GP_ID":"221695304","EPOCH":"2022-12-28T19:42:39.894048","PERIAPSIS":"537.536","TLE_LINE1":"1 52482U 22049AH  22362.82129507  .00001073  00000-0  85568-4 0  9994","MEAN_ANOMALY":"327.5568","APOAPSIS":"541.951","CENTER_NAME":"EARTH","COUNTRY_CODE":"US","SITE":"AFETR","EPHEMERIS_TYPE":"0"},{"PERIOD":"95.436","NORAD_CAT_ID":"52483","RCS_SIZE":"LARGE","OBJECT_TYPE":"PAYLOAD","OBJECT_NAME":"STARLINK-3875","REV_AT_EPOCH":"3734","MEAN_ELEMENT_THEORY":"SGP4","DECAY_DATE":null,"MEAN_MOTION":"15.08859243","INCLINATION":"53.2156","MEAN_MOTION_DDOT":"0.0000000000000","ELEMENT_SET_NO":"999","OBJECT_ID":"2022-049AJ","REF_FRAME":"TEME","FILE":"3725038","SEMIMAJOR_AXIS":"6917.822","LAUNCH_DATE":"2022-05-06","ECCENTRICITY":"0.00024090","MEAN_MOTION_DOT":"0.00003866","TLE_LINE2":"2 52483  53.2156 251.2047 0002409  37.5798 322.5362 15.08859243 37346","TIME_SYSTEM":"UTC","ARG_OF_PERICENTER":"37.5798","BSTAR":"0.00026073000000","CLASSIFICATION_TYPE":"U","RA_OF_ASC_NODE":"251.2047","CENTER_NAME":"EARTH","EPHEMERIS_TYPE":"0","COUNTRY_CODE":"US","SITE":"AFETR","APOAPSIS":"541.353","MEAN_ANOMALY":"322.5362","EPOCH":"2022-12-27T23:18:31.596192","PERIAPSIS":"538.020","TLE_LINE1":"1 52483U 22049AJ  22361.97119903  .00003866  00000-0  26073-3 0  9996","GP_ID":"221696052"},{"ARG_OF_PERICENTER":"34.2430","CLASSIFICATION_TYPE":"U","BSTAR":"0.00039694000000","RA_OF_ASC_NODE":"261.0449","MEAN_MOTION_DOT":"0.00006038","TLE_LINE2":"2 52484  53.2156 261.0449 0002862  34.2430 325.8747 15.08859219 35975","TIME_SYSTEM":"UTC","PERIAPSIS":"537.707","EPOCH":"2022-12-28T00:15:29.242368","TLE_LINE1":"1 52484U 22049AK  22362.01075512  .00006038  00000-0  39694-3 0  9997","GP_ID":"221696303","CENTER_NAME":"EARTH","EPHEMERIS_TYPE":"0","COUNTRY_CODE":"US","SITE":"AFETR","APOAPSIS":"541.667","MEAN_ANOMALY":"325.8747","RCS_SIZE":"LARGE","OBJECT_TYPE":"PAYLOAD","OBJECT_NAME":"STARLINK-3887","PERIOD":"95.436","NORAD_CAT_ID":"52484","ELEMENT_SET_NO":"999","OBJECT_ID":"2022-049AK","REF_FRAME":"TEME","FILE":"3725038","SEMIMAJOR_AXIS":"6917.822","LAUNCH_DATE":"2022-05-06","ECCENTRICITY":"0.00028620","REV_AT_EPOCH":"3597","MEAN_ELEMENT_THEORY":"SGP4","DECAY_DATE":null,"MEAN_MOTION":"15.08859219","MEAN_MOTION_DDOT":"0.0000000000000","INCLINATION":"53.2156"}];
